H1 CPF 01  gfz 2021 08 18 12  7302 terrasarx 
H2 0702601  6201 31698    2021 08 18 12 59 42 2021 08 23 00 00 42   120 1 1  0 0 0
H9
10 0 59448  48942.000000  0   -1733466.036  -1880192.653  -6402897.529
10 0 59448  49062.000000  0   -1425271.442  -1054997.441  -6662891.793
10 0 59448  49182.000000  0   -1077835.540   -217265.152  -6806647.642
10 0 59448  49302.000000  0    -697094.983    617857.770  -6831693.295
10 0 59448  49422.000000  0    -289819.740   1435387.225  -6737598.083
10 0 59448  49542.000000  0     136503.893   2220763.215  -6525978.689
10 0 59448  49662.000000  0     573806.333   2960103.183  -6200476.195
10 0 59448  49782.000000  0    1013584.303   3640445.008  -5766700.941
10 0 59448  49902.000000  0    1447061.831   4249973.384  -5232144.333
10 0 59448  50022.000000  0    1865361.412   4778227.578  -4606061.410
10 0 59448  50142.000000  0    2259683.045   5216288.001  -3899321.635
10 0 59448  50262.000000  0    2621486.729   5556935.251  -3124228.871
10 0 59448  50382.000000  0    2942675.271   5794779.395  -2294314.387
10 0 59448  50502.000000  0    3215773.754   5926355.800  -1424103.800
10 0 59448  50622.000000  0    3434100.251   5950184.035   -528861.716
10 0 59448  50742.000000  0    3591922.877   5866787.155    375680.911
10 0 59448  50862.000000  0    3684599.253   5678670.420   1273610.081
10 0 59448  50982.000000  0    3708695.698   5390260.086   2149116.242
10 0 59448  51102.000000  0    3662082.068   5007804.989   2986780.959
10 0 59448  51222.000000  0    3543999.450   4539240.294   3771857.705
10 0 59448  51342.000000  0    3355099.984   3994017.565   4490535.476
10 0 59448  51462.000000  0    3097457.388   3382909.739   5130186.598
10 0 59448  51582.000000  0    2774544.481   2717790.061   5679588.487
10 0 59448  51702.000000  0    2391186.153   2011395.148   6129115.281
10 0 59448  51822.000000  0    1953485.938   1277076.739   6470902.067
10 0 59448  51942.000000  0    1468725.550    528545.509   6698976.246
10 0 59448  52062.000000  0     945241.233   -220385.010   6809355.020
10 0 59448  52182.000000  0     392279.708   -956052.208   6800111.864
10 0 59448  52302.000000  0    -180165.462  -1665194.053   6671408.470
10 0 59448  52422.000000  0    -761534.577  -2335187.922   6425491.600
10 0 59448  52542.000000  0   -1340895.950  -2954275.489   6066654.996
10 0 59448  52662.000000  0   -1907148.667  -3511769.375   5601168.313
10 0 59448  52782.000000  0   -2449234.306  -3998240.562   5037175.517
10 0 59448  52902.000000  0   -2956355.373  -4405683.693   4384560.019
10 0 59448  53022.000000  0   -3418194.133  -4727655.190   3654775.805
10 0 59448  53142.000000  0   -3825125.270  -4959380.921   2860648.069
10 0 59448  53262.000000  0   -4168417.943  -5097831.579   2016147.904
10 0 59448  53382.000000  0   -4440424.658  -5141764.042   1136143.760
10 0 59448  53502.000000  0   -4634751.004  -5091726.111    236133.852
10 0 59448  53622.000000  0   -4746401.852  -4950025.011   -668034.322
10 0 59448  53742.000000  0   -4771900.260  -4720660.207  -1560452.359
10 0 59448  53862.000000  0   -4709374.823  -4409221.242  -2425440.493
10 0 59448  53982.000000  0   -4558613.522  -4022753.496  -3247830.168
10 0 59448  54102.000000  0   -4321083.768  -3569597.171  -4013233.303
10 0 59448  54222.000000  0   -3999919.075  -3059204.227  -4708293.864
10 0 59448  54342.000000  0   -3599873.108  -2501937.215  -5320917.403
10 0 59448  54462.000000  0   -3127242.538  -1908855.521  -5840474.174
10 0 59448  54582.000000  0   -2589761.875  -1291494.100  -6257973.969
10 0 59448  54702.000000  0   -1996471.772   -661638.802  -6566211.085
10 0 59448  54822.000000  0   -1357563.387    -31103.166  -6759876.759
10 0 59448  54942.000000  0    -684204.010    588488.513  -6835639.367
10 0 59448  55062.000000  0      11654.402   1185909.827  -6792195.750
10 0 59448  55182.000000  0     717481.810   1750530.197  -6630290.876
10 0 59448  55302.000000  0    1420389.926   2272499.537  -6352708.897
10 0 59448  55422.000000  0    2107363.201   2742917.976  -5964230.354
10 0 59448  55542.000000  0    2765495.850   3153987.424  -5471558.210
10 0 59448  55662.000000  0    3382231.395   3499141.525  -4883212.182
10 0 59448  55782.000000  0    3945602.244   3773154.562  -4209393.750
10 0 59448  55902.000000  0    4444465.223   3972225.548  -3461819.668
10 0 59448  56022.000000  0    4868727.506   4094035.066  -2653525.763
10 0 59448  56142.000000  0    5209556.215   4137773.029  -1798643.810
10 0 59448  56262.000000  0    5459568.219   4104136.908   -912155.442
10 0 59448  56382.000000  0    5612994.038   3995299.147     -9626.667
10 0 59448  56502.000000  0    5665811.937   3814845.044    893070.542
10 0 59448  56622.000000  0    5615848.858   3567681.127   1780045.332
10 0 59448  56742.000000  0    5462843.605   3259915.881   2635676.602
10 0 59448  56862.000000  0    5208471.007   2898717.498   3444896.887
10 0 59448  56982.000000  0    4856326.405   2492150.853   4193465.213
10 0 59448  57102.000000  0    4411870.153   2048997.600   4868221.004
10 0 59448  57222.000000  0    3882338.557   1578567.229   5457315.687
10 0 59448  57342.000000  0    3276617.587   1090500.870   5950421.316
10 0 59448  57462.000000  0    2605084.740    594571.901   6338905.747
10 0 59448  57582.000000  0    1879425.809    100490.851   6615975.904
10 0 59448  57702.000000  0    1112428.982   -382283.161   6776791.598
10 0 59448  57822.000000  0     317756.881   -844723.124   6818546.421
10 0 59448  57942.000000  0    -490297.939  -1278402.385   6740512.636
10 0 59448  58062.000000  0   -1297069.628  -1675647.888   6544052.440
10 0 59448  58182.000000  0   -2087783.907  -2029675.865   6232594.203
10 0 59448  58302.000000  0   -2847826.146  -2334706.982   5811576.821
10 0 59448  58422.000000  0   -3563012.799  -2586062.528   5288363.658
10 0 59448  58542.000000  0   -4219861.556  -2780238.736   4672119.353
10 0 59448  58662.000000  0   -4805850.618  -2914956.231   3973653.334
10 0 59448  58782.000000  0   -5309663.588  -2989183.633   3205233.522
10 0 59448  58902.000000  0   -5721415.268  -3003135.687   2380373.212
10 0 59448  59022.000000  0   -6032854.138  -2958246.369   1513592.567
10 0 59448  59142.000000  0   -6237534.538  -2857116.365    620157.364
10 0 59448  59262.000000  0   -6330953.145  -2703434.508   -284197.169
10 0 59448  59382.000000  0   -6310648.224  -2501877.424  -1183552.075
10 0 59448  59502.000000  0   -6176256.383  -2257988.172  -2062095.173
10 0 59448  59622.000000  0   -5929525.603  -1978038.246  -2904406.540
10 0 59448  59742.000000  0   -5574287.049  -1668876.712  -3695733.877
10 0 59448  59862.000000  0   -5116385.765  -1337770.372  -4422252.608
10 0 59448  59982.000000  0   -4563573.317   -992239.069  -5071305.415
10 0 59448  60102.000000  0   -3925364.857   -639889.667  -5631617.684
10 0 59448  60222.000000  0   -3212864.549   -288253.118  -6093484.233
10 0 59448  60342.000000  0   -2438564.910     55371.969  -6448925.938
10 0 59448  60462.000000  0   -1616124.065    384065.720  -6691815.904
10 0 59448  60582.000000  0    -760124.509    691420.765  -6817974.120
10 0 59448  60702.000000  0     114181.319    971663.206  -6825230.976
10 0 59448  60822.000000  0     991135.532   1219757.470  -6713459.995
10 0 59448  60942.000000  0    1854948.464   1431494.177  -6484582.581
10 0 59448  61062.000000  0    2689977.700   1603561.210  -6142538.698
10 0 59448  61182.000000  0    3481007.161   1733595.109  -5693225.518
10 0 59448  61302.000000  0    4213521.087   1820212.366  -5144405.036
10 0 59448  61422.000000  0    4873971.665   1863021.172  -4505582.278
10 0 59448  61542.000000  0    5450035.069   1862612.606  -3787851.108
10 0 59448  61662.000000  0    5930848.787   1820530.640  -3003710.430
10 0 59448  61782.000000  0    6307226.826   1739221.812  -2166853.883
10 0 59448  61902.000000  0    6571847.587   1621965.719  -1291933.174
10 0 59448  62022.000000  0    6719407.221   1472786.593   -394299.975
10 0 59448  62142.000000  0    6746734.861   1296347.860    510268.872
10 0 59448  62262.000000  0    6652864.229   1097833.306   1405855.266
10 0 59448  62382.000000  0    6439064.519    882817.218   2276687.861
10 0 59448  62502.000000  0    6108824.008    657125.675   3107429.901
10 0 59448  62622.000000  0    5667789.064    426694.061   3883456.522
10 0 59448  62742.000000  0    5123659.170    197423.979   4591117.828
10 0 59448  62862.000000  0    4486043.677    -24955.566   5217980.174
10 0 59448  62982.000000  0    3766282.033   -235022.078   5753045.337
10 0 59448  63102.000000  0    2977231.513   -427782.955   6186939.057
10 0 59448  63222.000000  0    2133030.486   -598786.033   6512069.497
10 0 59448  63342.000000  0    1248840.600   -744216.471   6722754.581
10 0 59448  63462.000000  0     340570.709   -860977.936   6815316.554
10 0 59448  63582.000000  0    -575410.866   -946755.952   6788140.930
10 0 59448  63702.000000  0   -1482570.415  -1000063.237   6641701.962
10 0 59448  63822.000000  0   -2364505.774  -1020265.474   6378554.258
10 0 59448  63942.000000  0   -3205240.993  -1007587.218   6003291.188
10 0 59448  64062.000000  0   -3989516.913   -963098.229   5522471.701
10 0 59448  64182.000000  0   -4703073.010   -888681.402   4944512.480
10 0 59448  64302.000000  0   -5332913.835   -786981.630   4279546.013
10 0 59448  64422.000000  0   -5867553.974   -661336.546   3539246.498
10 0 59448  64542.000000  0   -6297235.969   -515690.614   2736627.081
10 0 59448  64662.000000  0   -6614118.756   -354494.374   1885812.162
10 0 59448  64782.000000  0   -6812431.314   -182590.816   1001785.090
10 0 59448  64902.000000  0   -6888584.736     -5092.577    100117.237
10 0 59448  65022.000000  0   -6841240.616    172747.772   -803314.878
10 0 59448  65142.000000  0   -6671333.492    345671.081  -1692618.521
10 0 59448  65262.000000  0   -6382047.284    508544.348  -2552171.444
10 0 59448  65382.000000  0   -5978749.606    656490.060  -3366902.906
99
